{
  "norad_id": 68519,
  "name": "STARLINK-36326",
  "history": [
    {
      "epoch": "2026-05-04T20:00:01.999008Z",
      "apogee_km": 419.94577747633866,
      "perigee_km": 417.7761757222088,
      "latitude_deg": -14.527715698852289,
      "longitude_deg": -102.26907450025831,
      "height_km": 423.31506278579997,
      "semi_major_axis_km": 6796.997976599274,
      "eccentricity": 0.0001596,
      "inclination_deg": 53.1584,
      "raan_deg": 229.3243,
      "arg_perigee_deg": 77.7447,
      "mean_anomaly_deg": 120.3015,
      "mean_motion_rev_day": 15.49269785
    },
    {
      "epoch": "2026-05-05T13:43:39.702720Z",
      "apogee_km": 419.6702782814373,
      "perigee_km": 417.60949552932743,
      "latitude_deg": 6.898991878986408e-05,
      "longitude_deg": 156.42947363145655,
      "height_km": 419.3683022190029,
      "semi_major_axis_km": 6796.7768869053825,
      "eccentricity": 0.0001516,
      "inclination_deg": 53.1597,
      "raan_deg": 225.7899,
      "arg_perigee_deg": 80.1219,
      "mean_anomaly_deg": 279.9962,
      "mean_motion_rev_day": 15.49345379
    },
    {
      "epoch": "2026-05-06T20:41:30.441696Z",
      "apogee_km": 419.560505205819,
      "perigee_km": 417.8028478960632,
      "latitude_deg": 2.9380222048082527e-05,
      "longitude_deg": 44.52917662244545,
      "height_km": 419.51237363322184,
      "semi_major_axis_km": 6796.818676550941,
      "eccentricity": 0.0001293,
      "inclination_deg": 53.1585,
      "raan_deg": 219.6227,
      "arg_perigee_deg": 85.1281,
      "mean_anomaly_deg": 274.9876,
      "mean_motion_rev_day": 15.4933109
    },
    {
      "epoch": "2026-05-07T16:49:05.545632Z",
      "apogee_km": 419.5226179110996,
      "perigee_km": 417.8125418787986,
      "latitude_deg": -1.1653625987483512e-05,
      "longitude_deg": 97.79631409488378,
      "height_km": 419.5918846157364,
      "semi_major_axis_km": 6796.804579894949,
      "eccentricity": 0.0001258,
      "inclination_deg": 53.158,
      "raan_deg": 215.6127,
      "arg_perigee_deg": 91.2717,
      "mean_anomaly_deg": 268.8436,
      "mean_motion_rev_day": 15.4933591
    },
    {
      "epoch": "2026-05-08T12:56:40.903584Z",
      "apogee_km": 419.4941436550189,
      "perigee_km": 417.88601436812405,
      "latitude_deg": 2.7027280693367445e-05,
      "longitude_deg": 151.06315005542905,
      "height_km": 419.73143871030453,
      "semi_major_axis_km": 6796.827079011571,
      "eccentricity": 0.0001183,
      "inclination_deg": 53.1581,
      "raan_deg": 211.6034,
      "arg_perigee_deg": 99.7311,
      "mean_anomaly_deg": 260.3832,
      "mean_motion_rev_day": 15.49328217
    },
    {
      "epoch": "2026-05-09T13:42:57.213792Z",
      "apogee_km": 419.43151979413324,
      "perigee_km": 418.00961719080533,
      "latitude_deg": -3.348827471564675e-05,
      "longitude_deg": 133.54222642048768,
      "height_km": 419.565426376405,
      "semi_major_axis_km": 6796.857568492469,
      "eccentricity": 0.0001046,
      "inclination_deg": 53.1577,
      "raan_deg": 206.6678,
      "arg_perigee_deg": 85.1,
      "mean_anomaly_deg": 275.0128,
      "mean_motion_rev_day": 15.49317792
    },
    {
      "epoch": "2026-05-10T12:56:19.580064Z",
      "apogee_km": 419.3939268338054,
      "perigee_km": 417.9883427755285,
      "latitude_deg": 4.121106012409063e-05,
      "longitude_deg": 139.61975811472377,
      "height_km": 419.58492246001316,
      "semi_major_axis_km": 6796.828134804667,
      "eccentricity": 0.0001034,
      "inclination_deg": 53.1584,
      "raan_deg": 202.0422,
      "arg_perigee_deg": 89.0317,
      "mean_anomaly_deg": 271.0811,
      "mean_motion_rev_day": 15.49327856
    },
    {
      "epoch": "2026-05-11T10:36:48.554496Z",
      "apogee_km": 419.47625642707135,
      "perigee_km": 417.88036419221044,
      "latitude_deg": -1.6769394870735298e-06,
      "longitude_deg": 169.29024992379132,
      "height_km": 419.40306817106784,
      "semi_major_axis_km": 6796.815310309641,
      "eccentricity": 0.0001174,
      "inclination_deg": 53.1599,
      "raan_deg": 197.7236,
      "arg_perigee_deg": 76.8943,
      "mean_anomaly_deg": 283.2197,
      "mean_motion_rev_day": 15.49332241
    },
    {
      "epoch": "2026-05-12T20:40:25.117248Z",
      "apogee_km": 419.69255368047834,
      "perigee_km": 417.75680747385013,
      "latitude_deg": -4.998058874986792e-06,
      "longitude_deg": 10.202202111155303,
      "height_km": 419.59094827450855,
      "semi_major_axis_km": 6796.8616805771635,
      "eccentricity": 0.0001424,
      "inclination_deg": 53.1592,
      "raan_deg": 190.9367,
      "arg_perigee_deg": 87.6933,
      "mean_anomaly_deg": 272.4239,
      "mean_motion_rev_day": 15.49316386
    },
    {
      "epoch": "2026-05-13T20:00:01.999008Z",
      "apogee_km": 419.4241724886224,
      "perigee_km": 418.06751467304275,
      "latitude_deg": 19.220887849083503,
      "longitude_deg": 29.751108516978338,
      "height_km": 418.89050063925094,
      "semi_major_axis_km": 6796.882843580832,
      "eccentricity": 9.98e-05,
      "inclination_deg": 53.1583,
      "raan_deg": 186.2914,
      "arg_perigee_deg": 90.9074,
      "mean_anomaly_deg": 293.344,
      "mean_motion_rev_day": 15.4930915
    },
    {
      "epoch": "2026-05-14T06:44:02.700384Z",
      "apogee_km": 428.3393732232789,
      "perigee_km": 418.16367982097745,
      "latitude_deg": 5.037788673425164e-06,
      "longitude_deg": -148.89029858392712,
      "height_km": 422.2469495151545,
      "semi_major_axis_km": 6801.388526522128,
      "eccentricity": 0.00074806,
      "inclination_deg": 53.1578,
      "raan_deg": 184.1496,
      "arg_perigee_deg": 68.0801,
      "mean_anomaly_deg": 292.1002,
      "mean_motion_rev_day": 15.4776986
    },
    {
      "epoch": "2026-05-15T07:30:18.814464Z",
      "apogee_km": 419.4273572411821,
      "perigee_km": 417.8692621767859,
      "latitude_deg": -5.9289439786684034e-05,
      "longitude_deg": -166.40640330104517,
      "height_km": 419.15510427344566,
      "semi_major_axis_km": 6796.785309708984,
      "eccentricity": 0.00011462,
      "inclination_deg": 53.1583,
      "raan_deg": 179.218,
      "arg_perigee_deg": 59.196,
      "mean_anomaly_deg": 300.9161,
      "mean_motion_rev_day": 15.49342499
    }
  ]
}